STARLINK-5512           
1 57256U 23094AQ  25240.64034744 -.00001834  00000+0 -12074-3 0  9992
2 57256  43.0052 346.0349 0001030 274.0186  86.0538 15.02521769118235
STARLINK-5503           
1 57257U 23094AR  25240.33459107  .00000523  00000+0  53786-4 0  9991
2 57257  43.0050 348.0233 0001553 273.0064  87.0601 15.02535058118847
STARLINK-5476           
1 57258U 23094AS  25240.78772555 -.00000423  00000+0 -16269-4 0  9992
2 57258  42.9965 345.3982 0001207 127.8895 232.2057 15.02534011118258
STARLINK-5026           
1 57260U 23094AU  25240.64810987  .00000097  00000+0  22225-4 0  9996
2 57260  43.0042 346.0719 0001310 260.4101  99.6593 15.02548473118879
STARLINK-5485           
1 57261U 23094AV  25240.64785579  .00000329  00000+0  39417-4 0  9994
2 57261  43.0047 359.0779 0001246 274.8814  85.1886 15.02534883118081
STARLINK-5504           
1 57262U 23094AW  25240.78994835  .00000609  00000+0  60162-4 0  9999
2 57262  43.0041 345.4164 0001264 259.1589 100.9111 15.02531736118258
STARLINK-5509           
1 57263U 23094AX  25240.64674005  .00001100  00000+0  96444-4 0  9998
2 57263  43.0037 359.0700 0001143 275.4656  84.6056 15.02539552118084
STARLINK-5858           
1 57264U 23094AY  25240.64365401 -.00016883  00000+0 -12354-2 0  9998
2 57264  43.0035 346.0385 0001554 242.8859 117.1825 15.02604508118234
STARLINK-5890           
1 57265U 23094AZ  25240.64146439  .00010116  00000+0  76389-3 0  9997
2 57265  43.0043 346.0253 0000579 275.5474  84.5302 15.02483900118238
STARLINK-30198          
1 57290U 23096A   25240.24380054 -.00000051  00000+0  11312-4 0  9990
2 57290  43.0020 194.6803 0000752 259.3383 100.7375 15.02534172118511
STARLINK-30239          
1 57291U 23096B   25240.24046712  .00000578  00000+0  57865-4 0  9997
2 57291  43.0017 194.6572 0001261 289.1905  70.8801 15.02537143118510
STARLINK-30210          
1 57292U 23096C   25240.20590848  .00065084  00000+0  31978-2 0  9996
2 57292  42.9971 183.3693 0016632 151.0994 209.0778 15.17087303118524
STARLINK-30235          
1 57294U 23096E   25240.23047848  .00000363  00000+0  41938-4 0  9996
2 57294  43.0033 194.5796 0001482 280.6196  79.4479 15.02535540118516
STARLINK-30238          
1 57296U 23096G   25240.23271976  .00068612  00000+0  33425-2 0  9990
2 57296  42.9968 182.7280 0015832 151.8063 208.3645 15.17372387118675
STARLINK-30234          
1 57297U 23096H   25240.91668981  .00144028  00000+0  36610-2 0  9997
2 57297  42.9925 153.2508 0030206 189.2971   6.2575 15.37913340  5753
STARLINK-30241          
1 57298U 23096J   25240.19033538  .00075070  00000+0  33963-2 0  9990
2 57298  42.9962 179.8190 0016754 159.4673 200.6853 15.19876997118688
