[{"OBJECT_NAME":"STARLINK-5512","OBJECT_ID":"2023-094AQ","EPOCH":"2025-08-28T15:22:06.018816","MEAN_MOTION":15.02521769,"ECCENTRICITY":0.00010308,"INCLINATION":43.0052,"RA_OF_ASC_NODE":346.0349,"ARG_OF_PERICENTER":274.0186,"MEAN_ANOMALY":86.0538,"EPHEMERIS_TYPE":0,"CLASSIFICATION_TYPE":"U","NORAD_CAT_ID":57256,"ELEMENT_SET_NO":999,"REV_AT_EPOCH":11823,"BSTAR":-0.00012074343,"MEAN_MOTION_DOT":-1.834e-5,"MEAN_MOTION_DDOT":0},{"OBJECT_NAME":"STARLINK-5503","OBJECT_ID":"2023-094AR","EPOCH":"2025-08-28T08:01:48.668448","MEAN_MOTION":15.02535058,"ECCENTRICITY":0.0001553,"INCLINATION":43.005,"RA_OF_ASC_NODE":348.0233,"ARG_OF_PERICENTER":273.0064,"MEAN_ANOMALY":87.0601,"EPHEMERIS_TYPE":0,"CLASSIFICATION_TYPE":"U","NORAD_CAT_ID":57257,"ELEMENT_SET_NO":999,"REV_AT_EPOCH":11884,"BSTAR":5.3785916e-5,"MEAN_MOTION_DOT":5.23e-6,"MEAN_MOTION_DDOT":0},{"OBJECT_NAME":"STARLINK-5476","OBJECT_ID":"2023-094AS","EPOCH":"2025-08-28T18:54:19.487520","MEAN_MOTION":15.02534011,"ECCENTRICITY":0.00012071,"INCLINATION":42.9965,"RA_OF_ASC_NODE":345.3982,"ARG_OF_PERICENTER":127.8895,"MEAN_ANOMALY":232.2057,"EPHEMERIS_TYPE":0,"CLASSIFICATION_TYPE":"U","NORAD_CAT_ID":57258,"ELEMENT_SET_NO":999,"REV_AT_EPOCH":11825,"BSTAR":-1.62688e-5,"MEAN_MOTION_DOT":-4.23e-6,"MEAN_MOTION_DDOT":0},{"OBJECT_NAME":"STARLINK-5026","OBJECT_ID":"2023-094AU","EPOCH":"2025-08-28T15:33:16.692768","MEAN_MOTION":15.02548473,"ECCENTRICITY":0.00013101,"INCLINATION":43.0042,"RA_OF_ASC_NODE":346.0719,"ARG_OF_PERICENTER":260.4101,"MEAN_ANOMALY":99.6593,"EPHEMERIS_TYPE":0,"CLASSIFICATION_TYPE":"U","NORAD_CAT_ID":57260,"ELEMENT_SET_NO":999,"REV_AT_EPOCH":11887,"BSTAR":2.2224535e-5,"MEAN_MOTION_DOT":9.7e-7,"MEAN_MOTION_DDOT":0},{"OBJECT_NAME":"STARLINK-5485","OBJECT_ID":"2023-094AV","EPOCH":"2025-08-28T15:32:54.740256","MEAN_MOTION":15.02534883,"ECCENTRICITY":0.00012467,"INCLINATION":43.0047,"RA_OF_ASC_NODE":359.0779,"ARG_OF_PERICENTER":274.8814,"MEAN_ANOMALY":85.1886,"EPHEMERIS_TYPE":0,"CLASSIFICATION_TYPE":"U","NORAD_CAT_ID":57261,"ELEMENT_SET_NO":999,"REV_AT_EPOCH":11808,"BSTAR":3.9417173e-5,"MEAN_MOTION_DOT":3.29e-6,"MEAN_MOTION_DDOT":0},{"OBJECT_NAME":"STARLINK-5504","OBJECT_ID":"2023-094AW","EPOCH":"2025-08-28T18:57:31.537440","MEAN_MOTION":15.02531736,"ECCENTRICITY":0.00012645,"INCLINATION":43.0041,"RA_OF_ASC_NODE":345.4164,"ARG_OF_PERICENTER":259.1589,"MEAN_ANOMALY":100.9111,"EPHEMERIS_TYPE":0,"CLASSIFICATION_TYPE":"U","NORAD_CAT_ID":57262,"ELEMENT_SET_NO":999,"REV_AT_EPOCH":11825,"BSTAR":6.0161959e-5,"MEAN_MOTION_DOT":6.09e-6,"MEAN_MOTION_DDOT":0},{"OBJECT_NAME":"STARLINK-5509","OBJECT_ID":"2023-094AX","EPOCH":"2025-08-28T15:31:18.340320","MEAN_MOTION":15.02539552,"ECCENTRICITY":0.00011437,"INCLINATION":43.0037,"RA_OF_ASC_NODE":359.07,"ARG_OF_PERICENTER":275.4656,"MEAN_ANOMALY":84.6056,"EPHEMERIS_TYPE":0,"CLASSIFICATION_TYPE":"U","NORAD_CAT_ID":57263,"ELEMENT_SET_NO":999,"REV_AT_EPOCH":11808,"BSTAR":9.6443583e-5,"MEAN_MOTION_DOT":1.1e-5,"MEAN_MOTION_DDOT":0},{"OBJECT_NAME":"STARLINK-5858","OBJECT_ID":"2023-094AY","EPOCH":"2025-08-28T15:26:51.706464","MEAN_MOTION":15.02604508,"ECCENTRICITY":0.00015541,"INCLINATION":43.0035,"RA_OF_ASC_NODE":346.0385,"ARG_OF_PERICENTER":242.8859,"MEAN_ANOMALY":117.1825,"EPHEMERIS_TYPE":0,"CLASSIFICATION_TYPE":"U","NORAD_CAT_ID":57264,"ELEMENT_SET_NO":999,"REV_AT_EPOCH":11823,"BSTAR":-0.0012354436,"MEAN_MOTION_DOT":-0.00016883,"MEAN_MOTION_DDOT":0},{"OBJECT_NAME":"STARLINK-5890","OBJECT_ID":"2023-094AZ","EPOCH":"2025-08-28T15:23:42.523296","MEAN_MOTION":15.024839,"ECCENTRICITY":5.796e-5,"INCLINATION":43.0043,"RA_OF_ASC_NODE":346.0253,"ARG_OF_PERICENTER":275.5474,"MEAN_ANOMALY":84.5302,"EPHEMERIS_TYPE":0,"CLASSIFICATION_TYPE":"U","NORAD_CAT_ID":57265,"ELEMENT_SET_NO":999,"REV_AT_EPOCH":11823,"BSTAR":0.00076389475,"MEAN_MOTION_DOT":0.00010116,"MEAN_MOTION_DDOT":0},{"OBJECT_NAME":"STARLINK-30198","OBJECT_ID":"2023-096A","EPOCH":"2025-08-28T05:51:04.366656","MEAN_MOTION":15.02534172,"ECCENTRICITY":7.527e-5,"INCLINATION":43.002,"RA_OF_ASC_NODE":194.6803,"ARG_OF_PERICENTER":259.3383,"MEAN_ANOMALY":100.7375,"EPHEMERIS_TYPE":0,"CLASSIFICATION_TYPE":"U","NORAD_CAT_ID":57290,"ELEMENT_SET_NO":999,"REV_AT_EPOCH":11851,"BSTAR":1.1312371e-5,"MEAN_MOTION_DOT":-5.1e-7,"MEAN_MOTION_DDOT":0},{"OBJECT_NAME":"STARLINK-30239","OBJECT_ID":"2023-096B","EPOCH":"2025-08-28T05:46:16.359168","MEAN_MOTION":15.02537143,"ECCENTRICITY":0.00012618,"INCLINATION":43.0017,"RA_OF_ASC_NODE":194.6572,"ARG_OF_PERICENTER":289.1905,"MEAN_ANOMALY":70.8801,"EPHEMERIS_TYPE":0,"CLASSIFICATION_TYPE":"U","NORAD_CAT_ID":57291,"ELEMENT_SET_NO":999,"REV_AT_EPOCH":11851,"BSTAR":5.7865294e-5,"MEAN_MOTION_DOT":5.78e-6,"MEAN_MOTION_DDOT":0},{"OBJECT_NAME":"STARLINK-30210","OBJECT_ID":"2023-096C","EPOCH":"2025-08-28T04:56:30.492672","MEAN_MOTION":15.17087303,"ECCENTRICITY":0.00166324,"INCLINATION":42.9971,"RA_OF_ASC_NODE":183.3693,"ARG_OF_PERICENTER":151.0994,"MEAN_ANOMALY":209.0778,"EPHEMERIS_TYPE":0,"CLASSIFICATION_TYPE":"U","NORAD_CAT_ID":57292,"ELEMENT_SET_NO":999,"REV_AT_EPOCH":11852,"BSTAR":0.0031977675,"MEAN_MOTION_DOT":0.00065084,"MEAN_MOTION_DDOT":0},{"OBJECT_NAME":"STARLINK-30235","OBJECT_ID":"2023-096E","EPOCH":"2025-08-28T05:31:53.340672","MEAN_MOTION":15.0253554,"ECCENTRICITY":0.00014827,"INCLINATION":43.0033,"RA_OF_ASC_NODE":194.5796,"ARG_OF_PERICENTER":280.6196,"MEAN_ANOMALY":79.4479,"EPHEMERIS_TYPE":0,"CLASSIFICATION_TYPE":"U","NORAD_CAT_ID":57294,"ELEMENT_SET_NO":999,"REV_AT_EPOCH":11851,"BSTAR":4.1938004e-5,"MEAN_MOTION_DOT":3.63e-6,"MEAN_MOTION_DDOT":0},{"OBJECT_NAME":"STARLINK-30238","OBJECT_ID":"2023-096G","EPOCH":"2025-08-28T05:35:06.987264","MEAN_MOTION":15.17372387,"ECCENTRICITY":0.00158324,"INCLINATION":42.9968,"RA_OF_ASC_NODE":182.728,"ARG_OF_PERICENTER":151.8063,"MEAN_ANOMALY":208.3645,"EPHEMERIS_TYPE":0,"CLASSIFICATION_TYPE":"U","NORAD_CAT_ID":57296,"ELEMENT_SET_NO":999,"REV_AT_EPOCH":11867,"BSTAR":0.0033425102,"MEAN_MOTION_DOT":0.00068612,"MEAN_MOTION_DDOT":0},{"OBJECT_NAME":"STARLINK-30234","OBJECT_ID":"2023-096H","EPOCH":"2025-08-28T22:00:01.999584","MEAN_MOTION":15.3791334,"ECCENTRICITY":0.00302064,"INCLINATION":42.9925,"RA_OF_ASC_NODE":153.2508,"ARG_OF_PERICENTER":189.2971,"MEAN_ANOMALY":6.2575,"EPHEMERIS_TYPE":0,"CLASSIFICATION_TYPE":"U","NORAD_CAT_ID":57297,"ELEMENT_SET_NO":999,"REV_AT_EPOCH":575,"BSTAR":0.0036610376,"MEAN_MOTION_DOT":0.00144028,"MEAN_MOTION_DDOT":0},{"OBJECT_NAME":"STARLINK-30241","OBJECT_ID":"2023-096J","EPOCH":"2025-08-28T04:34:04.976832","MEAN_MOTION":15.19876997,"ECCENTRICITY":0.00167549,"INCLINATION":42.9962,"RA_OF_ASC_NODE":179.819,"ARG_OF_PERICENTER":159.4673,"MEAN_ANOMALY":200.6853,"EPHEMERIS_TYPE":0,"CLASSIFICATION_TYPE":"U","NORAD_CAT_ID":57298,"ELEMENT_SET_NO":999,"REV_AT_EPOCH":11868,"BSTAR":0.0033962662,"MEAN_MOTION_DOT":0.0007507,"MEAN_MOTION_DDOT":0}]
